{
    "links": {
        "self": "http://www.neowsapp.com/rest/v1/neo/3092286?api_key=iIulBulltgU6a56xZRHN4H3l9WmuAYTsLGpBGhQ2"
    },
    "id": "3092286",
    "neo_reference_id": "3092286",
    "name": "(2001 BB40)",
    "designation": "2001 BB40",
    "nasa_jpl_url": "http://ssd.jpl.nasa.gov/sbdb.cgi?sstr=3092286",
    "absolute_magnitude_h": 24.6,
    "estimated_diameter": {
        "kilometers": {
            "estimated_diameter_min": 0.0319561887,
            "estimated_diameter_max": 0.0714562102
        },
        "meters": {
            "estimated_diameter_min": 31.9561886721,
            "estimated_diameter_max": 71.4562101727
        },
        "miles": {
            "estimated_diameter_min": 0.0198566489,
            "estimated_diameter_max": 0.0444008168
        },
        "feet": {
            "estimated_diameter_min": 104.8431420431,
            "estimated_diameter_max": 234.436392583
        }
    },
    "is_potentially_hazardous_asteroid": false,
    "close_approach_data": [
        {
            "close_approach_date": "2001-01-22",
            "close_approach_date_full": "2001-Jan-22 20:56",
            "epoch_date_close_approach": 980196960000,
            "relative_velocity": {
                "kilometers_per_second": "10.7772944093",
                "kilometers_per_hour": "38798.2598734328",
                "miles_per_hour": "24107.7298641339"
            },
            "miss_distance": {
                "astronomical": "0.0362833721",
                "lunar": "14.1142317469",
                "kilometers": "5427915.182577427",
                "miles": "3372750.0979534126"
            },
            "orbiting_body": "Earth"
        }
    ],
    "orbital_data": {
        "orbit_id": "11",
        "orbit_determination_date": "2017-04-06 09:16:34",
        "first_observation_date": "2001-01-24",
        "last_observation_date": "2001-01-26",
        "data_arc_in_days": 2,
        "observations_used": 11,
        "orbit_uncertainty": "8",
        "minimum_orbit_intersection": ".033204",
        "jupiter_tisserand_invariant": "4.164",
        "epoch_osculation": "2451934.5",
        "eccentricity": ".3866482196613914",
        "semi_major_axis": "1.640060213877381",
        "inclination": "16.73597714121066",
        "ascending_node_longitude": "123.1709690844282",
        "orbital_period": "767.1638265157652",
        "perihelion_distance": "1.005933852044211",
        "perihelion_argument": "342.7744932635809",
        "aphelion_distance": "2.274186575710551",
        "perihelion_time": "2451918.293569418123",
        "mean_anomaly": "7.605044460937999",
        "mean_motion": ".4692609160614561",
        "equinox": "J2000",
        "orbit_class": {
            "orbit_class_type": "APO",
            "orbit_class_description": "Near-Earth asteroid orbits which cross the Earth’s orbit similar to that of 1862 Apollo",
            "orbit_class_range": "a (semi-major axis) > 1.0 AU; q (perihelion) < 1.017 AU"
        }
    },
    "is_sentry_object": false
}